STARLINK-3237           
1 49726U 21115C   24229.12794046  .00498377  00000+0  58329-2 0  9996
2 49726  53.1826 168.8524 0006887 136.6960 223.4596 15.59359054150811
STARLINK-3242           
1 49727U 21115D   24229.17055328  .00003168  00000+0  21708-3 0  9997
2 49727  53.2157 200.2808 0001252  95.1808 264.9327 15.08835555150380
STARLINK-3240           
1 49728U 21115E   24228.64431735  .00002899  00000+0  20019-3 0  9993
2 49728  53.2156 202.6435 0001567  95.9223 264.1948 15.08840014149183
STARLINK-3251           
1 49729U 21115F   24228.63693603  .00000999  00000+0  80848-4 0  9993
2 49729  53.2162 202.5597 0001227  86.5938 273.5195 15.08836995149182
STARLINK-3249           
1 49730U 21115G   24229.13745326  .00005617  00000+0  37069-3 0  9999
2 49730  53.2159 200.6234 0001411  80.1692 279.9460 15.08842216150369
STARLINK-3246           
1 49732U 21115J   24228.21744897  .00002521  00000+0  17643-3 0  9998
2 49732  53.2159 204.7150 0001501  93.0304 267.0859 15.08838327149115
STARLINK-3252           
1 49733U 21115K   24229.18895089  .00004304  00000+0  28831-3 0  9998
2 49733  53.2142 200.1965 0001493 103.0636 257.0523 15.08845124150372
STARLINK-3238           
1 49734U 21115L   24229.20829506  .00004646  00000+0  30974-3 0  9993
2 49734  53.2148 190.1362 0001381  77.4301 282.6845 15.08845264150520
STARLINK-3113           
1 49735U 21115M   24228.65165581  .00008156  00000+0  52980-3 0  9999
2 49735  53.2137 202.4920 0001358 100.9958 259.1187 15.08848081149188
STARLINK-3148           
1 49736U 21115N   24229.20457708  .00003297  00000+0  22513-3 0  9997
2 49736  53.2147 190.0123 0001351  87.3227 272.7920 15.08839508150527
STARLINK-3225           
1 49737U 21115P   24229.21195211  .00004577  00000+0  30546-3 0  9994
2 49737  53.2155 190.0939 0001349  91.1772 268.9374 15.08839798150528
STARLINK-3143           
1 49738U 21115Q   24228.64252918  .00000205  00000+0  30973-4 0  9998
2 49738  53.2171 192.8567 0001448  93.1133 267.0025 15.08844496149327
STARLINK-3155           
1 49739U 21115R   24228.20639629  .00012933  00000+0  82939-3 0  9998
2 49739  53.2144 204.6094 0001485  81.6393 278.4768 15.08831012149113
STARLINK-3226           
1 49740U 21115S   24228.63146099  .00001107  00000+0  87611-4 0  9995
2 49740  53.2166 192.6743 0001400  86.7422 273.3730 15.08843864149326
STARLINK-3244           
1 49741U 21115T   24228.62779733  .00012676  00000+0  81299-3 0  9990
2 49741  53.2133 192.7278 0001330  92.7821 267.3323 15.08845607149325
STARLINK-3202           
1 49742U 21115U   24228.64154581  .00000729  00000+0  63886-4 0  9990
2 49742  53.2160 192.6558 0001685  82.0313 278.0871 15.08845630149320
STARLINK-3239           
1 49743U 21115V   24229.22026967  .00001245  00000+0  96325-4 0  9990
2 49743  53.2163 189.9891 0001345  97.1912 262.9233 15.08828544150521
STARLINK-3231           
1 49744U 21115W   24229.16873519  .00003979  00000+0  26794-3 0  9995
2 49744  53.2149 190.1842 0001475  93.8897 266.2264 15.08844599150513
STARLINK-3241           
1 49745U 21115X   24229.16506722  .00005925  00000+0  38997-3 0  9996
2 49745  53.2145 190.2779 0001399  89.7193 270.3960 15.08845806150519
STARLINK-3233           
1 49746U 21115Y   24229.18619027  .00002664  00000+0  18540-3 0  9991
2 49746  53.2148 190.2111 0001354  92.3574 267.7573 15.08843148150514
STARLINK-3247           
1 49747U 21115Z   24228.18155026  .00000025  00000+0  19635-4 0  9991
2 49747  53.2158 194.7204 0001306  80.1555 279.9585 15.08839725149252
STARLINK-3248           
1 49748U 21115AA  24228.62310367  .00002565  00000+0  17917-3 0  9993
2 49748  53.2155 192.3140 0001381  89.0172 271.0978 15.08840898150444
STARLINK-3250           
1 49749U 21115AB  24228.60942132  .00008030  00000+0  52196-3 0  9994
2 49749  53.2148 193.0426 0001228  83.1508 276.9624 15.08845864150428
STARLINK-3236           
1 49750U 21115AC  24229.20186068 -.00006350  00000+0 -38128-3 0  9995
2 49750  53.2147 190.1511 0001255  96.8501 263.2633 15.08833444150527
STARLINK-3229           
1 49751U 21115AD  24229.18250094  .00002116  00000+0  15096-3 0  9997
2 49751  53.2145 190.1524 0001513  99.3126 260.8038 15.08845536150525
STARLINK-3209           
1 49752U 21115AE  24229.15126982  .00003833  00000+0  25878-3 0  9999
2 49752  53.2146 180.3769 0001443  87.3436 272.7721 15.08840181150658
STARLINK-3200           
1 49753U 21115AF  24228.60106856  .00001492  00000+0  11180-3 0  9997
2 49753  53.2148 192.8393 0001261  96.9218 263.1918 15.08839796149328
STARLINK-3193           
1 49754U 21115AG  24228.16041892  .00014447  00000+0  92404-3 0  9999
2 49754  53.2146 184.9231 0001524  73.7836 286.3323 15.08835609149394
STARLINK-3210           
1 49755U 21115AH  24229.20923393  .00003327  00000+0  22704-3 0  9992
2 49755  53.2166 190.1585 0001512  77.4746 282.6415 15.08837082150521
STARLINK-3207           
1 49756U 21115AJ  24228.16776993  .00017996  00000+0  11458-2 0  9999
2 49756  53.2144 184.7823 0001453  89.7823 270.3336 15.08844116149393
