OBJECT_NAME,OBJECT_ID,EPOCH,MEAN_MOTION,ECCENTRICITY,INCLINATION,RA_OF_ASC_NODE,ARG_OF_PERICENTER,MEAN_ANOMALY,EPHEMERIS_TYPE,CLASSIFICATION_TYPE,NORAD_CAT_ID,ELEMENT_SET_NO,REV_AT_EPOCH,BSTAR,MEAN_MOTION_DOT,MEAN_MOTION_DDOT
STARLINK-3237,2021-115C,2024-08-16T03:04:14.055744,15.59359054,.0006887,53.1826,168.8524,136.6960,223.4596,0,U,49726,999,15081,.58329E-2,.498377E-2,0
STARLINK-3242,2021-115D,2024-08-16T04:05:35.803392,15.08835555,.0001252,53.2157,200.2808,95.1808,264.9327,0,U,49727,999,15038,.21708E-3,.3168E-4,0
STARLINK-3240,2021-115E,2024-08-15T15:27:49.019040,15.08840014,.0001567,53.2156,202.6435,95.9223,264.1948,0,U,49728,999,14918,.20019E-3,.2899E-4,0
STARLINK-3251,2021-115F,2024-08-15T15:17:11.272992,15.08836995,.0001227,53.2162,202.5597,86.5938,273.5195,0,U,49729,999,14918,.80848E-4,.999E-5,0
STARLINK-3249,2021-115G,2024-08-16T03:17:55.961664,15.08842216,.0001411,53.2159,200.6234,80.1692,279.9460,0,U,49730,999,15036,.37069E-3,.5617E-4,0
STARLINK-3246,2021-115J,2024-08-15T05:13:07.591008,15.08838327,.0001501,53.2159,204.7150,93.0304,267.0859,0,U,49732,999,14911,.17643E-3,.2521E-4,0
STARLINK-3252,2021-115K,2024-08-16T04:32:05.356896,15.08845124,.0001493,53.2142,200.1965,103.0636,257.0523,0,U,49733,999,15037,.28831E-3,.4304E-4,0
STARLINK-3238,2021-115L,2024-08-16T04:59:56.693184,15.08845264,.0001381,53.2148,190.1362,77.4301,282.6845,0,U,49734,999,15052,.30974E-3,.4646E-4,0
STARLINK-3113,2021-115M,2024-08-15T15:38:23.061984,15.08848081,.0001358,53.2137,202.4920,100.9958,259.1187,0,U,49735,999,14918,.5298E-3,.8156E-4,0
STARLINK-3148,2021-115N,2024-08-16T04:54:35.459712,15.08839508,.0001351,53.2147,190.0123,87.3227,272.7920,0,U,49736,999,15052,.22513E-3,.3297E-4,0
STARLINK-3225,2021-115P,2024-08-16T05:05:12.662304,15.08839798,.0001349,53.2155,190.0939,91.1772,268.9374,0,U,49737,999,15052,.30546E-3,.4577E-4,0
STARLINK-3143,2021-115Q,2024-08-15T15:25:14.521152,15.08844496,.0001448,53.2171,192.8567,93.1133,267.0025,0,U,49738,999,14932,.30973E-4,.205E-5,0
STARLINK-3155,2021-115R,2024-08-15T04:57:12.639456,15.08831012,.0001485,53.2144,204.6094,81.6393,278.4768,0,U,49739,999,14911,.82939E-3,.12933E-3,0
STARLINK-3226,2021-115S,2024-08-15T15:09:18.229536,15.08843864,.00014,53.2166,192.6743,86.7422,273.3730,0,U,49740,999,14932,.87611E-4,.1107E-4,0
STARLINK-3244,2021-115T,2024-08-15T15:04:01.689312,15.08845607,.000133,53.2133,192.7278,92.7821,267.3323,0,U,49741,999,14932,.81299E-3,.12676E-3,0
STARLINK-3202,2021-115U,2024-08-15T15:23:49.557984,15.08845630,.0001685,53.2160,192.6558,82.0313,278.0871,0,U,49742,999,14932,.63886E-4,.729E-5,0
STARLINK-3239,2021-115V,2024-08-16T05:17:11.299488,15.08828544,.0001345,53.2163,189.9891,97.1912,262.9233,0,U,49743,999,15052,.96325E-4,.1245E-4,0
STARLINK-3231,2021-115W,2024-08-16T04:02:58.720416,15.08844599,.0001475,53.2149,190.1842,93.8897,266.2264,0,U,49744,999,15051,.26794E-3,.3979E-4,0
STARLINK-3241,2021-115X,2024-08-16T03:57:41.807808,15.08845806,.0001399,53.2145,190.2779,89.7193,270.3960,0,U,49745,999,15051,.38997E-3,.5925E-4,0
STARLINK-3233,2021-115Y,2024-08-16T04:28:06.839328,15.08843148,.0001354,53.2148,190.2111,92.3574,267.7573,0,U,49746,999,15051,.1854E-3,.2664E-4,0
STARLINK-3247,2021-115Z,2024-08-15T04:21:25.942464,15.08839725,.0001306,53.2158,194.7204,80.1555,279.9585,0,U,49747,999,14925,.19635E-4,.25E-6,0
STARLINK-3248,2021-115AA,2024-08-15T14:57:16.157088,15.08840898,.0001381,53.2155,192.3140,89.0172,271.0978,0,U,49748,999,15044,.17917E-3,.2565E-4,0
STARLINK-3250,2021-115AB,2024-08-15T14:37:34.002048,15.08845864,.0001228,53.2148,193.0426,83.1508,276.9624,0,U,49749,999,15042,.52196E-3,.803E-4,0
STARLINK-3236,2021-115AC,2024-08-16T04:50:40.762752,15.08833444,.0001255,53.2147,190.1511,96.8501,263.2633,0,U,49750,999,15052,-.38128E-3,-.635E-4,0
STARLINK-3229,2021-115AD,2024-08-16T04:22:48.081216,15.08845536,.0001513,53.2145,190.1524,99.3126,260.8038,0,U,49751,999,15052,.15096E-3,.2116E-4,0
STARLINK-3209,2021-115AE,2024-08-16T03:37:49.712448,15.08840181,.0001443,53.2146,180.3769,87.3436,272.7721,0,U,49752,999,15065,.25878E-3,.3833E-4,0
STARLINK-3200,2021-115AF,2024-08-15T14:25:32.323584,15.08839796,.0001261,53.2148,192.8393,96.9218,263.1918,0,U,49753,999,14932,.1118E-3,.1492E-4,0
STARLINK-3193,2021-115AG,2024-08-15T03:51:00.194688,15.08835609,.0001524,53.2146,184.9231,73.7836,286.3323,0,U,49754,999,14939,.92404E-3,.14447E-3,0
STARLINK-3210,2021-115AH,2024-08-16T05:01:17.811552,15.08837082,.0001512,53.2166,190.1585,77.4746,282.6415,0,U,49755,999,15052,.22704E-3,.3327E-4,0
STARLINK-3207,2021-115AJ,2024-08-15T04:01:35.321952,15.08844116,.0001453,53.2144,184.7823,89.7823,270.3336,0,U,49756,999,14939,.11458E-2,.17996E-3,0
